CCSDS_OMM_VERS = 2.0
CREATION_DATE  = 
ORIGINATOR     = 

OBJECT_NAME    = SOYUZ-MS 28
OBJECT_ID      = 2025-275A
CENTER_NAME    = EARTH
REF_FRAME      = TEME
TIME_SYSTEM    = UTC
MEAN_ELEMENT_THEORY = SGP/SGP4

EPOCH          = 2026-01-04T18:12:13.764096
MEAN_MOTION    = 15.49095636
ECCENTRICITY   = .0007565
INCLINATION    = 51.6325
RA_OF_ASC_NODE = 28.5008
ARG_OF_PERICENTER = 340.7123
MEAN_ANOMALY   = 19.3578

EPHEMERIS_TYPE = 0
CLASSIFICATION_TYPE = U
NORAD_CAT_ID   = 66664
ELEMENT_SET_NO = 999
REV_AT_EPOCH   = 54642
BSTAR          = .19662E-3
MEAN_MOTION_DOT = .10439E-3
MEAN_MOTION_DDOT = 0

CCSDS_OMM_VERS = 2.0
CREATION_DATE  = 
ORIGINATOR     = 

OBJECT_NAME    = 1998-067XS
OBJECT_ID      = 1998-067XS
CENTER_NAME    = EARTH
REF_FRAME      = TEME
TIME_SYSTEM    = UTC
MEAN_ELEMENT_THEORY = SGP/SGP4

EPOCH          = 2026-01-04T14:23:11.664384
MEAN_MOTION    = 15.51948769
ECCENTRICITY   = .0002453
INCLINATION    = 51.6316
RA_OF_ASC_NODE = 28.9400
ARG_OF_PERICENTER = 323.1367
MEAN_ANOMALY   = 36.9454

EPHEMERIS_TYPE = 0
CLASSIFICATION_TYPE = U
NORAD_CAT_ID   = 66906
ELEMENT_SET_NO = 999
REV_AT_EPOCH   = 516
BSTAR          = .40723E-3
MEAN_MOTION_DOT = .24524E-3
MEAN_MOTION_DDOT = 0

CCSDS_OMM_VERS = 2.0
CREATION_DATE  = 
ORIGINATOR     = 

OBJECT_NAME    = 1998-067XT
OBJECT_ID      = 1998-067XT
CENTER_NAME    = EARTH
REF_FRAME      = TEME
TIME_SYSTEM    = UTC
MEAN_ELEMENT_THEORY = SGP/SGP4

EPOCH          = 2026-01-04T05:59:24.295200
MEAN_MOTION    = 15.54802766
ECCENTRICITY   = .0003955
INCLINATION    = 51.6312
RA_OF_ASC_NODE = 30.3541
ARG_OF_PERICENTER = 4.3130
MEAN_ANOMALY   = 355.7894

EPHEMERIS_TYPE = 0
CLASSIFICATION_TYPE = U
NORAD_CAT_ID   = 66907
ELEMENT_SET_NO = 999
REV_AT_EPOCH   = 511
BSTAR          = .11247E-2
MEAN_MOTION_DOT = .76582E-3
MEAN_MOTION_DDOT = 0

CCSDS_OMM_VERS = 2.0
CREATION_DATE  = 
ORIGINATOR     = 

OBJECT_NAME    = 1998-067XU
OBJECT_ID      = 1998-067XU
CENTER_NAME    = EARTH
REF_FRAME      = TEME
TIME_SYSTEM    = UTC
MEAN_ELEMENT_THEORY = SGP/SGP4

EPOCH          = 2026-01-04T07:30:26.205984
MEAN_MOTION    = 15.54794755
ECCENTRICITY   = .0003885
INCLINATION    = 51.6309
RA_OF_ASC_NODE = 30.0253
ARG_OF_PERICENTER = 1.5182
MEAN_ANOMALY   = 358.5819

EPHEMERIS_TYPE = 0
CLASSIFICATION_TYPE = U
NORAD_CAT_ID   = 66908
ELEMENT_SET_NO = 999
REV_AT_EPOCH   = 512
BSTAR          = .11949E-2
MEAN_MOTION_DOT = .81416E-3
MEAN_MOTION_DDOT = 0

CCSDS_OMM_VERS = 2.0
CREATION_DATE  = 
ORIGINATOR     = 

OBJECT_NAME    = SILVERSAT
OBJECT_ID      = 1998-067XV
CENTER_NAME    = EARTH
REF_FRAME      = TEME
TIME_SYSTEM    = UTC
MEAN_ELEMENT_THEORY = SGP/SGP4

EPOCH          = 2026-01-04T10:29:15.936864
MEAN_MOTION    = 15.55345299
ECCENTRICITY   = .0003993
INCLINATION    = 51.6312
RA_OF_ASC_NODE = 29.3551
ARG_OF_PERICENTER = 10.2921
MEAN_ANOMALY   = 349.8151

EPHEMERIS_TYPE = 0
CLASSIFICATION_TYPE = U
NORAD_CAT_ID   = 66909
ELEMENT_SET_NO = 999
REV_AT_EPOCH   = 514
BSTAR          = .12537343E-2
MEAN_MOTION_DOT = .87269E-3
MEAN_MOTION_DDOT = 0

CCSDS_OMM_VERS = 2.0
CREATION_DATE  = 
ORIGINATOR     = 

OBJECT_NAME    = 1998-067XW
OBJECT_ID      = 1998-067XW
CENTER_NAME    = EARTH
REF_FRAME      = TEME
TIME_SYSTEM    = UTC
MEAN_ELEMENT_THEORY = SGP/SGP4

EPOCH          = 2026-01-04T10:28:26.467680
MEAN_MOTION    = 15.55100222
ECCENTRICITY   = .00030983
INCLINATION    = 51.6300
RA_OF_ASC_NODE = 29.3498
ARG_OF_PERICENTER = 343.2651
MEAN_ANOMALY   = 16.8237

EPHEMERIS_TYPE = 0
CLASSIFICATION_TYPE = U
NORAD_CAT_ID   = 66910
ELEMENT_SET_NO = 999
REV_AT_EPOCH   = 514
BSTAR          = .11863609E-2
MEAN_MOTION_DOT = .81743E-3
MEAN_MOTION_DDOT = 0

CCSDS_OMM_VERS = 2.0
CREATION_DATE  = 
ORIGINATOR     = 

OBJECT_NAME    = 1998-067XX
OBJECT_ID      = 1998-067XX
CENTER_NAME    = EARTH
REF_FRAME      = TEME
TIME_SYSTEM    = UTC
MEAN_ELEMENT_THEORY = SGP/SGP4

EPOCH          = 2026-01-04T08:43:45.630912
MEAN_MOTION    = 15.55963050
ECCENTRICITY   = .00030598
INCLINATION    = 51.6307
RA_OF_ASC_NODE = 29.6157
ARG_OF_PERICENTER = 357.0626
MEAN_ANOMALY   = 3.0347

EPHEMERIS_TYPE = 0
CLASSIFICATION_TYPE = U
NORAD_CAT_ID   = 66911
ELEMENT_SET_NO = 999
REV_AT_EPOCH   = 512
BSTAR          = .13229944E-2
MEAN_MOTION_DOT = .94322E-3
MEAN_MOTION_DDOT = 0

CCSDS_OMM_VERS = 2.0
CREATION_DATE  = 
ORIGINATOR     = 

OBJECT_NAME    = 1998-067XY
OBJECT_ID      = 1998-067XY
CENTER_NAME    = EARTH
REF_FRAME      = TEME
TIME_SYSTEM    = UTC
MEAN_ELEMENT_THEORY = SGP/SGP4

EPOCH          = 2026-01-04T18:34:57.850752
MEAN_MOTION    = 15.53809565
ECCENTRICITY   = .00037664
INCLINATION    = 51.6318
RA_OF_ASC_NODE = 27.8582
ARG_OF_PERICENTER = 354.7054
MEAN_ANOMALY   = 5.3896

EPHEMERIS_TYPE = 0
CLASSIFICATION_TYPE = U
NORAD_CAT_ID   = 66912
ELEMENT_SET_NO = 999
REV_AT_EPOCH   = 518
BSTAR          = .92208253E-3
MEAN_MOTION_DOT = .60327E-3
MEAN_MOTION_DDOT = 0

